{"type": "FeatureCollection", "features": [ {"type": "Feature", "properties": {"norad_id": 34304, "name": "COSMOS 2251 DEB", "group": "cosmos-2251-debris", "lat": 73.99729894064829, "lon": -168.62430895168626, "alt_km": 832.3473159827099, "timestamp": "2025-12-25T03:55:56.761249+00:00", "meta": {"OBJECT_NAME": "COSMOS 2251 DEB", "OBJECT_ID": "1993-036NA", "EPOCH": "2025-12-24T14:12:56.505888", "MEAN_MOTION": 14.37971336, "ECCENTRICITY": 0.0128973, "INCLINATION": 74.0138, "RA_OF_ASC_NODE": 100.731, "ARG_OF_PERICENTER": 236.1313, "MEAN_ANOMALY": 137.7442, "EPHEMERIS_TYPE": 0, "CLASSIFICATION_TYPE": "U", "NORAD_CAT_ID": 34304, "ELEMENT_SET_NO": 999, "REV_AT_EPOCH": 87467, "BSTAR": 0.001686, "MEAN_MOTION_DOT": 5.588e-05, "MEAN_MOTION_DDOT": 0}, "tle": {"line1": "1 34304U 93036NA  25358.59232067  .00005588  00000+0  16860-2 0  9990", "line2": "2 34304  74.0138 100.7310 0128973 236.1313 137.7442 14.37971336874674"}}, "geometry": {"type": "Point", "coordinates": [-168.62430895168626, 73.99729894064829]}}, {"type": "Feature", "properties": {"norad_id": 34307, "name": "COSMOS 2251 DEB", "group": "cosmos-2251-debris", "lat": 15.240906852724407, "lon": 108.71291479988888, "alt_km": 837.2943826758774, "timestamp": "2025-12-25T03:55:56.761260+00:00", "meta": {"OBJECT_NAME": "COSMOS 2251 DEB", "OBJECT_ID": "1993-036ND", "EPOCH": "2025-12-24T04:26:08.180160", "MEAN_MOTION": 13.54338868, "ECCENTRICITY": 0.03917898, "INCLINATION": 74.0541, "RA_OF_ASC_NODE": 294.7509, "ARG_OF_PERICENTER": 123.1652, "MEAN_ANOMALY": 306.2657, "EPHEMERIS_TYPE": 0, "CLASSIFICATION_TYPE": "U", "NORAD_CAT_ID": 34307, "ELEMENT_SET_NO": 999, "REV_AT_EPOCH": 83017, "BSTAR": 0.0007607421, "MEAN_MOTION_DOT": 8.28e-06, "MEAN_MOTION_DDOT": 0}, "tle": {"line1": "1 34307U 93036ND  25358.18481690  .00000828  00000+0  76074-3 0  9992", "line2": "2 34307  74.0541 294.7509 0391789 123.1652 306.2657 13.54338868830170"}}, "geometry": {"type": "Point", "coordinates": [108.71291479988888, 15.240906852724407]}}, {"type": "Feature", "properties": {"norad_id": 34313, "name": "COSMOS 2251 DEB", "group": "cosmos-2251-debris", "lat": 20.715100865896197, "lon": 93.10144341378603, "alt_km": 502.6954505337744, "timestamp": "2025-12-25T03:55:56.761270+00:00", "meta": {"OBJECT_NAME": "COSMOS 2251 DEB", "OBJECT_ID": "1993-036NK", "EPOCH": "2025-12-24T19:20:54.127392", "MEAN_MOTION": 15.21201207, "ECCENTRICITY": 0.0012289, "INCLINATION": 73.9715, "RA_OF_ASC_NODE": 280.0966, "ARG_OF_PERICENTER": 62.0713, "MEAN_ANOMALY": 298.1727, "EPHEMERIS_TYPE": 0, "CLASSIFICATION_TYPE": "U", "NORAD_CAT_ID": 34313, "ELEMENT_SET_NO": 999, "REV_AT_EPOCH": 89248, "BSTAR": 0.0045749, "MEAN_MOTION_DOT": 0.00103707, "MEAN_MOTION_DDOT": 0}, "tle": {"line1": "1 34313U 93036NK  25358.80618203  .00103707  00000+0  45749-2 0  9994", "line2": "2 34313  73.9715 280.0966 0012289  62.0713 298.1727 15.21201207892488"}}, "geometry": {"type": "Point", "coordinates": [93.10144341378603, 20.715100865896197]}}, {"type": "Feature", "properties": {"norad_id": 34314, "name": "COSMOS 2251 DEB", "group": "cosmos-2251-debris", "lat": -73.9777154240855, "lon": -166.64842224451877, "alt_km": 877.4011096817139, "timestamp": "2025-12-25T03:55:56.761280+00:00", "meta": {"OBJECT_NAME": "COSMOS 2251 DEB", "OBJECT_ID": "1993-036NL", "EPOCH": "2025-12-24T20:11:38.371776", "MEAN_MOTION": 14.17453646, "ECCENTRICITY": 0.0103498, "INCLINATION": 74.0063, "RA_OF_ASC_NODE": 286.7871, "ARG_OF_PERICENTER": 29.6099, "MEAN_ANOMALY": 35.9489, "EPHEMERIS_TYPE": 0, "CLASSIFICATION_TYPE": "U", "NORAD_CAT_ID": 34314, "ELEMENT_SET_NO": 999, "REV_AT_EPOCH": 86829, "BSTAR": 0.00061164, "MEAN_MOTION_DOT": 1.282e-05, "MEAN_MOTION_DDOT": 0}, "tle": {"line1": "1 34314U 93036NL  25358.84141634  .00001282  00000+0  61164-3 0  9993", "line2": "2 34314  74.0063 286.7871 0103498  29.6099  35.9489 14.17453646868298"}}, "geometry": {"type": "Point", "coordinates": [-166.64842224451877, -73.9777154240855]}}, {"type": "Feature", "properties": {"norad_id": 34316, "name": "COSMOS 2251 DEB", "group": "cosmos-2251-debris", "lat": -13.653562911552664, "lon": 135.97434437492086, "alt_km": 601.31031755201, "timestamp": "2025-12-25T03:55:56.761291+00:00", "meta": {"OBJECT_NAME": "COSMOS 2251 DEB", "OBJECT_ID": "1993-036NN", "EPOCH": "2025-12-24T06:08:53.987424", "MEAN_MOTION": 14.92185919, "ECCENTRICITY": 0.00091448, "INCLINATION": 74.0659, "RA_OF_ASC_NODE": 313.8131, "ARG_OF_PERICENTER": 34.9894, "MEAN_ANOMALY": 325.1888, "EPHEMERIS_TYPE": 0, "CLASSIFICATION_TYPE": "U", "NORAD_CAT_ID": 34316, "ELEMENT_SET_NO": 999, "REV_AT_EPOCH": 89381, "BSTAR": 0.0019870475, "MEAN_MOTION_DOT": 0.00020279, "MEAN_MOTION_DDOT": 0}, "tle": {"line1": "1 34316U 93036NN  25358.25618041  .00020279  00000+0  19870-2 0  9994", "line2": "2 34316  74.0659 313.8131 0009144  34.9894 325.1888 14.92185919893818"}}, "geometry": {"type": "Point", "coordinates": [135.97434437492086, -13.653562911552664]}}, {"type": "Feature", "properties": {"norad_id": 34317, "name": "COSMOS 2251 DEB", "group": "cosmos-2251-debris", "lat": 30.42569950565368, "lon": 25.054255945722993, "alt_km": 796.6051840317596, "timestamp": "2025-12-25T03:55:56.761301+00:00", "meta": {"OBJECT_NAME": "COSMOS 2251 DEB", "OBJECT_ID": "1993-036NP", "EPOCH": "2025-12-24T19:53:47.023008", "MEAN_MOTION": 13.65137257, "ECCENTRICITY": 0.0336965, "INCLINATION": 73.9242, "RA_OF_ASC_NODE": 15.8553, "ARG_OF_PERICENTER": 2.7883, "MEAN_ANOMALY": 182.3062, "EPHEMERIS_TYPE": 0, "CLASSIFICATION_TYPE": "U", "NORAD_CAT_ID": 34317, "ELEMENT_SET_NO": 999, "REV_AT_EPOCH": 83784, "BSTAR": 0.00062516, "MEAN_MOTION_DOT": 7.24e-06, "MEAN_MOTION_DDOT": 0}, "tle": {"line1": "1 34317U 93036NP  25358.82901647  .00000724  00000+0  62516-3 0  9994", "line2": "2 34317  73.9242  15.8553 0336965   2.7883 182.3062 13.65137257837846"}}, "geometry": {"type": "Point", "coordinates": [25.054255945722993, 30.42569950565368]}}, {"type": "Feature", "properties": {"norad_id": 34321, "name": "COSMOS 2251 DEB", "group": "cosmos-2251-debris", "lat": -74.0117223560086, "lon": 41.284786675658985, "alt_km": 720.9521337807219, "timestamp": "2025-12-25T03:55:56.761312+00:00", "meta": {"OBJECT_NAME": "COSMOS 2251 DEB", "OBJECT_ID": "1993-036NT", "EPOCH": "2025-12-24T17:17:26.511936", "MEAN_MOTION": 14.50105866, "ECCENTRICITY": 0.0016058, "INCLINATION": 74.0286, "RA_OF_ASC_NODE": 133.8518, "ARG_OF_PERICENTER": 262.7586, "MEAN_ANOMALY": 212.9324, "EPHEMERIS_TYPE": 0, "CLASSIFICATION_TYPE": "U", "NORAD_CAT_ID": 34321, "ELEMENT_SET_NO": 999, "REV_AT_EPOCH": 88660, "BSTAR": 0.00063166, "MEAN_MOTION_DOT": 2.429e-05, "MEAN_MOTION_DDOT": 0}, "tle": {"line1": "1 34321U 93036NT  25358.72044574  .00002429  00000+0  63166-3 0  9991", "line2": "2 34321  74.0286 133.8518 0016058 262.7586 212.9324 14.50105866886604"}}, "geometry": {"type": "Point", "coordinates": [41.284786675658985, -74.0117223560086]}}, {"type": "Feature", "properties": {"norad_id": 34323, "name": "COSMOS 2251 DEB", "group": "cosmos-2251-debris", "lat": -54.96540381947989, "lon": 74.49036906198833, "alt_km": 690.8599824606954, "timestamp": "2025-12-25T03:55:56.761322+00:00", "meta": {"OBJECT_NAME": "COSMOS 2251 DEB", "OBJECT_ID": "1993-036NV", "EPOCH": "2025-12-24T01:19:33.547296", "MEAN_MOTION": 14.74760101, "ECCENTRICITY": 0.00574879, "INCLINATION": 73.9538, "RA_OF_ASC_NODE": 100.9029, "ARG_OF_PERICENTER": 142.0885, "MEAN_ANOMALY": 35.9909, "EPHEMERIS_TYPE": 0, "CLASSIFICATION_TYPE": "U", "NORAD_CAT_ID": 34323, "ELEMENT_SET_NO": 999, "REV_AT_EPOCH": 88606, "BSTAR": 0.0021858052, "MEAN_MOTION_DOT": 0.00015019, "MEAN_MOTION_DDOT": 0}, "tle": {"line1": "1 34323U 93036NV  25358.05524939  .00015019  00000+0  21858-2 0  9997", "line2": "2 34323  73.9538 100.9029 0057487 142.0885  35.9909 14.74760101886066"}}, "geometry": {"type": "Point", "coordinates": [74.49036906198833, -54.96540381947989]}}, {"type": "Feature", "properties": {"norad_id": 34325, "name": "COSMOS 2251 DEB", "group": "cosmos-2251-debris", "lat": -73.34573444470416, "lon": 66.22758988172467, "alt_km": 858.0959438658801, "timestamp": "2025-12-25T03:55:56.761333+00:00", "meta": {"OBJECT_NAME": "COSMOS 2251 DEB", "OBJECT_ID": "1993-036NX", "EPOCH": "2025-12-24T18:11:46.389120", "MEAN_MOTION": 14.04548446, "ECCENTRICITY": 0.0191409, "INCLINATION": 73.8708, "RA_OF_ASC_NODE": 171.63, "ARG_OF_PERICENTER": 186.717, "MEAN_ANOMALY": 186.4949, "EPHEMERIS_TYPE": 0, "CLASSIFICATION_TYPE": "U", "NORAD_CAT_ID": 34325, "ELEMENT_SET_NO": 999, "REV_AT_EPOCH": 85684, "BSTAR": 0.0019852, "MEAN_MOTION_DOT": 3.709e-05, "MEAN_MOTION_DDOT": 0}, "tle": {"line1": "1 34325U 93036NX  25358.75817580  .00003709  00000+0  19852-2 0  9997", "line2": "2 34325  73.8708 171.6300 0191409 186.7170 186.4949 14.04548446856846"}}, "geometry": {"type": "Point", "coordinates": [66.22758988172467, -73.34573444470416]}}, {"type": "Feature", "properties": {"norad_id": 34327, "name": "COSMOS 2251 DEB", "group": "cosmos-2251-debris", "lat": -73.85559440248552, "lon": 49.55128550996874, "alt_km": 592.4021113695326, "timestamp": "2025-12-25T03:55:56.761343+00:00", "meta": {"OBJECT_NAME": "COSMOS 2251 DEB", "OBJECT_ID": "1993-036NZ", "EPOCH": "2025-12-24T20:49:00.641856", "MEAN_MOTION": 14.89448683, "ECCENTRICITY": 0.0033683, "INCLINATION": 73.9947, "RA_OF_ASC_NODE": 147.5816, "ARG_OF_PERICENTER": 321.6376, "MEAN_ANOMALY": 157.5225, "EPHEMERIS_TYPE": 0, "CLASSIFICATION_TYPE": "U", "NORAD_CAT_ID": 34327, "ELEMENT_SET_NO": 999, "REV_AT_EPOCH": 89688, "BSTAR": 0.0014168, "MEAN_MOTION_DOT": 0.00013612, "MEAN_MOTION_DDOT": 0}, "tle": {"line1": "1 34327U 93036NZ  25358.86736854  .00013612  00000+0  14168-2 0  9994", "line2": "2 34327  73.9947 147.5816 0033683 321.6376 157.5225 14.89448683896884"}}, "geometry": {"type": "Point", "coordinates": [49.55128550996874, -73.85559440248552]}}]}